{
  "links" : {
    "next" : "https://api.nasa.gov/neo/rest/v1/feed?start_date=2008-02-23&end_date=2008-02-23&detailed=true&api_key=t0TVs3DtDT2H8Oy2Zy8m2eVrNsAVKAexjcZXUckd",
    "prev" : "https://api.nasa.gov/neo/rest/v1/feed?start_date=2008-02-21&end_date=2008-02-21&detailed=true&api_key=t0TVs3DtDT2H8Oy2Zy8m2eVrNsAVKAexjcZXUckd",
    "self" : "https://api.nasa.gov/neo/rest/v1/feed?start_date=2008-02-22&end_date=2008-02-22&detailed=true&api_key=t0TVs3DtDT2H8Oy2Zy8m2eVrNsAVKAexjcZXUckd"
  },
  "element_count" : 9,
  "near_earth_objects" : {
    "2008-02-22" : [ {
      "links" : {
        "self" : "https://api.nasa.gov/neo/rest/v1/neo/2369057?api_key=t0TVs3DtDT2H8Oy2Zy8m2eVrNsAVKAexjcZXUckd"
      },
      "neo_reference_id" : "2369057",
      "name" : "369057 (2008 DK5)",
      "nasa_jpl_url" : "http://ssd.jpl.nasa.gov/sbdb.cgi?sstr=2369057",
      "absolute_magnitude_h" : 21.3,
      "estimated_diameter" : {
        "kilometers" : {
          "estimated_diameter_min" : 0.1460679643,
          "estimated_diameter_max" : 0.3266178974
        },
        "meters" : {
          "estimated_diameter_min" : 146.0679642714,
          "estimated_diameter_max" : 326.6178974458
        },
        "miles" : {
          "estimated_diameter_min" : 0.090762397,
          "estimated_diameter_max" : 0.2029508896
        },
        "feet" : {
          "estimated_diameter_min" : 479.2256199,
          "estimated_diameter_max" : 1071.581062656
        }
      },
      "is_potentially_hazardous_asteroid" : true,
      "close_approach_data" : [ {
        "close_approach_date" : "2008-02-22",
        "epoch_date_close_approach" : 1203667200000,
        "relative_velocity" : {
          "kilometers_per_second" : "15.3106863999",
          "kilometers_per_hour" : "55118.4710396778",
          "miles_per_hour" : "34248.4744079598"
        },
        "miss_distance" : {
          "astronomical" : "0.1021633195",
          "lunar" : "39.7415313721",
          "kilometers" : "15283416",
          "miles" : "9496674"
        },
        "orbiting_body" : "Earth"
      } ],
      "orbital_data" : {
        "orbit_id" : "33",
        "orbit_determination_date" : "2017-04-06 09:22:33",
        "orbit_uncertainty" : "0",
        "minimum_orbit_intersection" : ".00912658",
        "jupiter_tisserand_invariant" : "4.207",
        "epoch_osculation" : "2458000.5",
        "eccentricity" : ".6149904163885781",
        "semi_major_axis" : "1.554415017505327",
        "inclination" : "4.272607060819378",
        "ascending_node_longitude" : "345.8335587204345",
        "orbital_period" : "707.8624941462556",
        "perihelion_distance" : ".5984646786490669",
        "perihelion_argument" : "80.73595156292895",
        "aphelion_distance" : "2.510365356361587",
        "perihelion_time" : "2458009.544936919674",
        "mean_anomaly" : "355.3999861300605",
        "mean_motion" : ".5085733500179179",
        "equinox" : "J2000"
      }
    }, {
      "links" : {
        "self" : "https://api.nasa.gov/neo/rest/v1/neo/3402364?api_key=t0TVs3DtDT2H8Oy2Zy8m2eVrNsAVKAexjcZXUckd"
      },
      "neo_reference_id" : "3402364",
      "name" : "(2008 CC71)",
      "nasa_jpl_url" : "http://ssd.jpl.nasa.gov/sbdb.cgi?sstr=3402364",
      "absolute_magnitude_h" : 24.9,
      "estimated_diameter" : {
        "kilometers" : {
          "estimated_diameter_min" : 0.0278326768,
          "estimated_diameter_max" : 0.0622357573
        },
        "meters" : {
          "estimated_diameter_min" : 27.8326768072,
          "estimated_diameter_max" : 62.2357573367
        },
        "miles" : {
          "estimated_diameter_min" : 0.0172944182,
          "estimated_diameter_max" : 0.0386714948
        },
        "feet" : {
          "estimated_diameter_min" : 91.3145593761,
          "estimated_diameter_max" : 204.1855621004
        }
      },
      "is_potentially_hazardous_asteroid" : false,
      "close_approach_data" : [ {
        "close_approach_date" : "2008-02-22",
        "epoch_date_close_approach" : 1203667200000,
        "relative_velocity" : {
          "kilometers_per_second" : "9.1787865451",
          "kilometers_per_hour" : "33043.6315623671",
          "miles_per_hour" : "20532.0276227386"
        },
        "miss_distance" : {
          "astronomical" : "0.0366019736",
          "lunar" : "14.2381668091",
          "kilometers" : "5475577",
          "miles" : "3402365.75"
        },
        "orbiting_body" : "Earth"
      } ],
      "orbital_data" : {
        "orbit_id" : "11",
        "orbit_determination_date" : "2017-04-06 09:04:24",
        "orbit_uncertainty" : "8",
        "minimum_orbit_intersection" : ".00058669",
        "jupiter_tisserand_invariant" : "4.565",
        "epoch_osculation" : "2454508.5",
        "eccentricity" : ".3680061274037855",
        "semi_major_axis" : "1.451987766906828",
        "inclination" : "1.87131603748596",
        "ascending_node_longitude" : "339.2278269311936",
        "orbital_period" : "639.0618068905259",
        "perihelion_distance" : ".9176473717697754",
        "perihelion_argument" : "222.2876542047327",
        "aphelion_distance" : "1.98632816204388",
        "perihelion_time" : "2454556.566634477446",
        "mean_anomaly" : "332.9228249516642",
        "mean_motion" : ".5633257943416256",
        "equinox" : "J2000"
      }
    }, {
      "links" : {
        "self" : "https://api.nasa.gov/neo/rest/v1/neo/3402248?api_key=t0TVs3DtDT2H8Oy2Zy8m2eVrNsAVKAexjcZXUckd"
      },
      "neo_reference_id" : "3402248",
      "name" : "(2008 CJ70)",
      "nasa_jpl_url" : "http://ssd.jpl.nasa.gov/sbdb.cgi?sstr=3402248",
      "absolute_magnitude_h" : 21.4,
      "estimated_diameter" : {
        "kilometers" : {
          "estimated_diameter_min" : 0.1394938229,
          "estimated_diameter_max" : 0.3119176705
        },
        "meters" : {
          "estimated_diameter_min" : 139.4938229344,
          "estimated_diameter_max" : 311.9176705226
        },
        "miles" : {
          "estimated_diameter_min" : 0.0866774163,
          "estimated_diameter_max" : 0.1938165949
        },
        "feet" : {
          "estimated_diameter_min" : 457.6569140361,
          "estimated_diameter_max" : 1023.3519701574
        }
      },
      "is_potentially_hazardous_asteroid" : false,
      "close_approach_data" : [ {
        "close_approach_date" : "2008-02-22",
        "epoch_date_close_approach" : 1203667200000,
        "relative_velocity" : {
          "kilometers_per_second" : "9.2065062953",
          "kilometers_per_hour" : "33143.4226632156",
          "miles_per_hour" : "20594.0339320408"
        },
        "miss_distance" : {
          "astronomical" : "0.3233422239",
          "lunar" : "125.780128479",
          "kilometers" : "48371312",
          "miles" : "30056538"
        },
        "orbiting_body" : "Earth"
      } ],
      "orbital_data" : {
        "orbit_id" : "20",
        "orbit_determination_date" : "2017-04-06 09:04:25",
        "orbit_uncertainty" : "0",
        "minimum_orbit_intersection" : ".28418",
        "jupiter_tisserand_invariant" : "4.683",
        "epoch_osculation" : "2458000.5",
        "eccentricity" : ".1518154892260797",
        "semi_major_axis" : "1.405653875137932",
        "inclination" : "17.33577959271873",
        "ascending_node_longitude" : "145.6808686376963",
        "orbital_period" : "608.7178234008654",
        "perihelion_distance" : "1.192253844401332",
        "perihelion_argument" : "69.95548592906729",
        "aphelion_distance" : "1.619053905874532",
        "perihelion_time" : "2458258.993358117786",
        "mean_anomaly" : "207.1252108201855",
        "mean_motion" : ".5914070299251372",
        "equinox" : "J2000"
      }
    } ]
  }
}